[{"COMMENT":"GENERATED VIA SPACETRACK.ORG API","ORIGINATOR":"18 SPCS","NORAD_CAT_ID":"45120","OBJECT_NAME":"VPM","OBJECT_TYPE":"PAYLOAD","CLASSIFICATION_TYPE":"U","INTLDES":"19071K","EPOCH":"2020-08-12 20:24:47","EPOCH_MICROSECONDS":"844000","MEAN_MOTION":"15.34316625","ECCENTRICITY":"0.0010975","INCLINATION":"51.6426","RA_OF_ASC_NODE":"90.2702","ARG_OF_PERICENTER":"256.2147","MEAN_ANOMALY":"103.7614","EPHEMERIS_TYPE":"0","ELEMENT_SET_NO":"999","REV_AT_EPOCH":"2967","BSTAR":"0.00010453","MEAN_MOTION_DOT":"0.00003151","MEAN_MOTION_DDOT":"0","FILE":"2800735","TLE_LINE0":"0 VPM","TLE_LINE1":"1 45120U 19071K   20225.85055375 +.00003151 +00000-0 +10453-3 0  9995","TLE_LINE2":"2 45120 051.6426 090.2702 0010975 256.2147 103.7614 15.34316625029679","OBJECT_ID":"2019-071K","OBJECT_NUMBER":"45120","SEMIMAJOR_AXIS":"6841.088","PERIOD":"93.852","APOGEE":"470.461","PERIGEE":"455.444","DECAYED":"0"},{"COMMENT":"GENERATED VIA SPACETRACK.ORG API","ORIGINATOR":"18 SPCS","NORAD_CAT_ID":"45120","OBJECT_NAME":"VPM","OBJECT_TYPE":"PAYLOAD","CLASSIFICATION_TYPE":"U","INTLDES":"19071K","EPOCH":"2020-08-13 02:39:57","EPOCH_MICROSECONDS":"852864","MEAN_MOTION":"15.3431829","ECCENTRICITY":"0.0010968","INCLINATION":"51.6426","RA_OF_ASC_NODE":"89.0098","ARG_OF_PERICENTER":"257.2218","MEAN_ANOMALY":"102.7538","EPHEMERIS_TYPE":"0","ELEMENT_SET_NO":"999","REV_AT_EPOCH":"2971","BSTAR":"0.00010598","MEAN_MOTION_DOT":"0.000032","MEAN_MOTION_DDOT":"0","FILE":"2801032","TLE_LINE0":"0 VPM","TLE_LINE1":"1 45120U 19071K   20226.11108626 +.00003200 +00000-0 +10598-3 0  9998","TLE_LINE2":"2 45120 051.6426 089.0098 0010968 257.2218 102.7538 15.34318290029714","OBJECT_ID":"2019-071K","OBJECT_NUMBER":"45120","SEMIMAJOR_AXIS":"6841.083","PERIOD":"93.852","APOGEE":"470.451","PERIGEE":"455.444","DECAYED":"0"},{"COMMENT":"GENERATED VIA SPACETRACK.ORG API","ORIGINATOR":"18 SPCS","NORAD_CAT_ID":"45120","OBJECT_NAME":"VPM","OBJECT_TYPE":"PAYLOAD","CLASSIFICATION_TYPE":"U","INTLDES":"19071K","EPOCH":"2020-08-13 19:51:40","EPOCH_MICROSECONDS":"232736","MEAN_MOTION":"15.34324168","ECCENTRICITY":"0.0010974","INCLINATION":"51.6431","RA_OF_ASC_NODE":"85.5437","ARG_OF_PERICENTER":"259.9821","MEAN_ANOMALY":"99.9923","EPHEMERIS_TYPE":"0","ELEMENT_SET_NO":"999","REV_AT_EPOCH":"2982","BSTAR":"0.00011369","MEAN_MOTION_DOT":"0.00003462","MEAN_MOTION_DDOT":"0","FILE":"2801493","TLE_LINE0":"0 VPM","TLE_LINE1":"1 45120U 19071K   20226.82754899  .00003462  00000-0  11369-3 0  9992","TLE_LINE2":"2 45120  51.6431  85.5437 0010974 259.9821  99.9923 15.34324168 29822","OBJECT_ID":"2019-071K","OBJECT_NUMBER":"45120","SEMIMAJOR_AXIS":"6841.065","PERIOD":"93.852","APOGEE":"470.438","PERIGEE":"455.423","DECAYED":"0"},{"COMMENT":"GENERATED VIA SPACETRACK.ORG API","ORIGINATOR":"18 SPCS","NORAD_CAT_ID":"45120","OBJECT_NAME":"VPM","OBJECT_TYPE":"PAYLOAD","CLASSIFICATION_TYPE":"U","INTLDES":"19071K","EPOCH":"2020-08-13 21:25:27","EPOCH_MICROSECONDS":"694560","MEAN_MOTION":"15.34325085","ECCENTRICITY":"0.0010978","INCLINATION":"51.6432","RA_OF_ASC_NODE":"85.2285","ARG_OF_PERICENTER":"260.2245","MEAN_ANOMALY":"99.7498","EPHEMERIS_TYPE":"0","ELEMENT_SET_NO":"999","REV_AT_EPOCH":"2983","BSTAR":"0.00011762","MEAN_MOTION_DOT":"0.00003595","MEAN_MOTION_DDOT":"0","FILE":"2801525","TLE_LINE0":"0 VPM","TLE_LINE1":"1 45120U 19071K   20226.89268165 +.00003595 +00000-0 +11762-3 0  9999","TLE_LINE2":"2 45120 051.6432 085.2285 0010978 260.2245 099.7498 15.34325085029835","OBJECT_ID":"2019-071K","OBJECT_NUMBER":"45120","SEMIMAJOR_AXIS":"6841.062","PERIOD":"93.852","APOGEE":"470.438","PERIGEE":"455.417","DECAYED":"0"},{"COMMENT":"GENERATED VIA SPACETRACK.ORG API","ORIGINATOR":"18 SPCS","NORAD_CAT_ID":"45120","OBJECT_NAME":"VPM","OBJECT_TYPE":"PAYLOAD","CLASSIFICATION_TYPE":"U","INTLDES":"19071K","EPOCH":"2020-08-14 02:06:50","EPOCH_MICROSECONDS":"134464","MEAN_MOTION":"15.34326195","ECCENTRICITY":"0.0010989","INCLINATION":"51.6428","RA_OF_ASC_NODE":"84.2833","ARG_OF_PERICENTER":"260.8683","MEAN_ANOMALY":"99.1056","EPHEMERIS_TYPE":"0","ELEMENT_SET_NO":"999","REV_AT_EPOCH":"2986","BSTAR":"0.00012608","MEAN_MOTION_DOT":"0.00003881","MEAN_MOTION_DDOT":"0","FILE":"2801898","TLE_LINE0":"0 VPM","TLE_LINE1":"1 45120U 19071K   20227.08808026 +.00003881 +00000-0 +12608-3 0  9995","TLE_LINE2":"2 45120 051.6428 084.2833 0010989 260.8683 099.1056 15.34326195029862","OBJECT_ID":"2019-071K","OBJECT_NUMBER":"45120","SEMIMAJOR_AXIS":"6841.059","PERIOD":"93.852","APOGEE":"470.442","PERIGEE":"455.406","DECAYED":"0"},{"COMMENT":"GENERATED VIA SPACETRACK.ORG API","ORIGINATOR":"18 SPCS","NORAD_CAT_ID":"45120","OBJECT_NAME":"VPM","OBJECT_TYPE":"PAYLOAD","CLASSIFICATION_TYPE":"U","INTLDES":"19071K","EPOCH":"2020-08-15 01:33:42","EPOCH_MICROSECONDS":"1344","MEAN_MOTION":"15.34333439","ECCENTRICITY":"0.0010979","INCLINATION":"51.6433","RA_OF_ASC_NODE":"79.5566","ARG_OF_PERICENTER":"264.6568","MEAN_ANOMALY":"95.3162","EPHEMERIS_TYPE":"0","ELEMENT_SET_NO":"999","REV_AT_EPOCH":"3001","BSTAR":"0.00012026","MEAN_MOTION_DOT":"0.00003685","MEAN_MOTION_DDOT":"0","FILE":"2802256","TLE_LINE0":"0 VPM","TLE_LINE1":"1 45120U 19071K   20228.06506946  .00003685  00000-0  12026-3 0  9996","TLE_LINE2":"2 45120  51.6433  79.5566 0010979 264.6568  95.3162 15.34333439 30015","OBJECT_ID":"2019-071K","OBJECT_NUMBER":"45120","SEMIMAJOR_AXIS":"6841.038","PERIOD":"93.851","APOGEE":"470.413","PERIGEE":"455.392","DECAYED":"0"},{"COMMENT":"GENERATED VIA SPACETRACK.ORG API","ORIGINATOR":"18 SPCS","NORAD_CAT_ID":"45120","OBJECT_NAME":"VPM","OBJECT_TYPE":"PAYLOAD","CLASSIFICATION_TYPE":"U","INTLDES":"19071K","EPOCH":"2020-08-15 14:04:01","EPOCH_MICROSECONDS":"482528","MEAN_MOTION":"15.34337309","ECCENTRICITY":"0.001099","INCLINATION":"51.6433","RA_OF_ASC_NODE":"77.0356","ARG_OF_PERICENTER":"266.6249","MEAN_ANOMALY":"93.3476","EPHEMERIS_TYPE":"0","ELEMENT_SET_NO":"999","REV_AT_EPOCH":"3009","BSTAR":"0.00011897","MEAN_MOTION_DOT":"0.00003642","MEAN_MOTION_DDOT":"0","FILE":"2802508","TLE_LINE0":"0 VPM","TLE_LINE1":"1 45120U 19071K   20228.58612827 +.00003642 +00000-0 +11897-3 0  9997","TLE_LINE2":"2 45120 051.6433 077.0356 0010990 266.6249 093.3476 15.34337309030090","OBJECT_ID":"2019-071K","OBJECT_NUMBER":"45120","SEMIMAJOR_AXIS":"6841.026","PERIOD":"93.851","APOGEE":"470.409","PERIGEE":"455.373","DECAYED":"0"},{"COMMENT":"GENERATED VIA SPACETRACK.ORG API","ORIGINATOR":"18 SPCS","NORAD_CAT_ID":"45120","OBJECT_NAME":"VPM","OBJECT_TYPE":"PAYLOAD","CLASSIFICATION_TYPE":"U","INTLDES":"19071K","EPOCH":"2020-08-15 20:19:11","EPOCH_MICROSECONDS":"184672","MEAN_MOTION":"15.3433918","ECCENTRICITY":"0.0010985","INCLINATION":"51.6433","RA_OF_ASC_NODE":"75.7753","ARG_OF_PERICENTER":"267.5971","MEAN_ANOMALY":"92.3754","EPHEMERIS_TYPE":"0","ELEMENT_SET_NO":"999","REV_AT_EPOCH":"3013","BSTAR":"0.0001178","MEAN_MOTION_DOT":"0.00003602","MEAN_MOTION_DDOT":"0","FILE":"2802705","TLE_LINE0":"0 VPM","TLE_LINE1":"1 45120U 19071K   20228.84665723 +.00003602 +00000-0 +11780-3 0  9996","TLE_LINE2":"2 45120 051.6433 075.7753 0010985 267.5971 092.3754 15.34339180030134","OBJECT_ID":"2019-071K","OBJECT_NUMBER":"45120","SEMIMAJOR_AXIS":"6841.021","PERIOD":"93.851","APOGEE":"470.400","PERIGEE":"455.371","DECAYED":"0"},{"COMMENT":"GENERATED VIA SPACETRACK.ORG API","ORIGINATOR":"18 SPCS","NORAD_CAT_ID":"45120","OBJECT_NAME":"VPM","OBJECT_TYPE":"PAYLOAD","CLASSIFICATION_TYPE":"U","INTLDES":"19071K","EPOCH":"2020-08-16 07:15:43","EPOCH_MICROSECONDS":"82208","MEAN_MOTION":"15.34342308","ECCENTRICITY":"0.0010988","INCLINATION":"51.6434","RA_OF_ASC_NODE":"73.5695","ARG_OF_PERICENTER":"269.3967","MEAN_ANOMALY":"90.5756","EPHEMERIS_TYPE":"0","ELEMENT_SET_NO":"999","REV_AT_EPOCH":"3020","BSTAR":"0.00011263","MEAN_MOTION_DOT":"0.00003428","MEAN_MOTION_DDOT":"0","FILE":"2802974","TLE_LINE0":"0 VPM","TLE_LINE1":"1 45120U 19071K   20229.30258197 +.00003428 +00000-0 +11263-3 0  9993","TLE_LINE2":"2 45120 051.6434 073.5695 0010988 269.3967 090.5756 15.34342308030200","OBJECT_ID":"2019-071K","OBJECT_NUMBER":"45120","SEMIMAJOR_AXIS":"6841.011","PERIOD":"93.851","APOGEE":"470.393","PERIGEE":"455.359","DECAYED":"0"},{"COMMENT":"GENERATED VIA SPACETRACK.ORG API","ORIGINATOR":"18 SPCS","NORAD_CAT_ID":"45120","OBJECT_NAME":"VPM","OBJECT_TYPE":"PAYLOAD","CLASSIFICATION_TYPE":"U","INTLDES":"19071K","EPOCH":"2020-08-16 19:46:02","EPOCH_MICROSECONDS":"319744","MEAN_MOTION":"15.34345425","ECCENTRICITY":"0.0010983","INCLINATION":"51.6433","RA_OF_ASC_NODE":"71.0485","ARG_OF_PERICENTER":"271.3202","MEAN_ANOMALY":"88.6522","EPHEMERIS_TYPE":"0","ELEMENT_SET_NO":"999","REV_AT_EPOCH":"3028","BSTAR":"0.00010502","MEAN_MOTION_DOT":"0.0000317","MEAN_MOTION_DDOT":"0","FILE":"2803232","TLE_LINE0":"0 VPM","TLE_LINE1":"1 45120U 19071K   20229.82363796 +.00003170 +00000-0 +10502-3 0  9991","TLE_LINE2":"2 45120 051.6433 071.0485 0010983 271.3202 088.6522 15.34345425030289","OBJECT_ID":"2019-071K","OBJECT_NUMBER":"45120","SEMIMAJOR_AXIS":"6841.002","PERIOD":"93.851","APOGEE":"470.380","PERIGEE":"455.353","DECAYED":"0"},{"COMMENT":"GENERATED VIA SPACETRACK.ORG API","ORIGINATOR":"18 SPCS","NORAD_CAT_ID":"45120","OBJECT_NAME":"VPM","OBJECT_TYPE":"PAYLOAD","CLASSIFICATION_TYPE":"U","INTLDES":"19071K","EPOCH":"2020-08-17 12:57:43","EPOCH_MICROSECONDS":"593696","MEAN_MOTION":"15.34349671","ECCENTRICITY":"0.001098","INCLINATION":"51.6433","RA_OF_ASC_NODE":"67.5822","ARG_OF_PERICENTER":"274.048","MEAN_ANOMALY":"85.9248","EPHEMERIS_TYPE":"0","ELEMENT_SET_NO":"999","REV_AT_EPOCH":"3039","BSTAR":"0.000094138","MEAN_MOTION_DOT":"0.00002802","MEAN_MOTION_DDOT":"0","FILE":"2803564","TLE_LINE0":"0 VPM","TLE_LINE1":"1 45120U 19071K   20230.54008789 +.00002802 +00000-0 +94138-4 0  9999","TLE_LINE2":"2 45120 051.6433 067.5822 0010980 274.0480 085.9248 15.34349671030393","OBJECT_ID":"2019-071K","OBJECT_NUMBER":"45120","SEMIMAJOR_AXIS":"6840.989","PERIOD":"93.850","APOGEE":"470.366","PERIGEE":"455.343","DECAYED":"0"}]